{
    "week": 295,
    "satellites": [
        {
            "Name": "BEIDOU-3 M28 (C50)",
            "Line1": "1 58654U 23207A   24339.25499450 -.00000006  00000+0  00000+0 0  9996",
            "Line2": "2 58654  55.2544  81.2740 0002187 246.5926 113.3845  1.86231973  6415",
            "SatelliteNumber": "58654",
            "Classification": "U",
            "LaunchYear": "23",
            "LaunchNumber": "207",
            "PieceOfLaunch": "A",
            "EpochYear": "24",
            "EpochDay": 339.2549945,
            "FirstDerivativeMeanMotion": -6e-08,
            "SecondDerivativeMeanMotion": "00000+0",
            "BSTAR": "00000+0",
            "SetNumber": "999",
            "Inclination": 55.2544,
            "RAAN": 81.274,
            "Eccentricity": 0.0002187,
            "ArgumentOfPerigee": 246.5926,
            "MeanAnomaly": 113.3845,
            "MeanMotion": 1.86231973,
            "RevolutionNumber": "641"
        },
        {
            "Name": "BEIDOU-3 M26 (C48)",
            "Line1": "1 58655U 23207B   24339.59129625 -.00000005  00000+0  00000+0 0  9997",
            "Line2": "2 58655  55.2567  81.2482 0003600 237.3464 122.6206  1.86231419  6408",
            "SatelliteNumber": "58655",
            "Classification": "U",
            "LaunchYear": "23",
            "LaunchNumber": "207",
            "PieceOfLaunch": "B",
            "EpochYear": "24",
            "EpochDay": 339.59129625,
            "FirstDerivativeMeanMotion": -5e-08,
            "SecondDerivativeMeanMotion": "00000+0",
            "BSTAR": "00000+0",
            "SetNumber": "999",
            "Inclination": 55.2567,
            "RAAN": 81.2482,
            "Eccentricity": 0.00036,
            "ArgumentOfPerigee": 237.3464,
            "MeanAnomaly": 122.6206,
            "MeanMotion": 1.86231419,
            "RevolutionNumber": "640"
        }
    ]
}